[{"OBJECT_NAME":"TOMORROW-S4","OBJECT_ID":"2024-247K","EPOCH":"2026-03-09T12:47:35.836224","MEAN_MOTION":15.27717249,"ECCENTRICITY":0.00044343,"INCLINATION":44.9818,"RA_OF_ASC_NODE":117.9996,"ARG_OF_PERICENTER":210.4078,"MEAN_ANOMALY":149.6548,"EPHEMERIS_TYPE":0,"CLASSIFICATION_TYPE":"U","NORAD_CAT_ID":62386,"ELEMENT_SET_NO":999,"REV_AT_EPOCH":6770,"BSTAR":0.00046927249,"MEAN_MOTION_DOT":0.00012677,"MEAN_MOTION_DDOT":0},{"OBJECT_NAME":"STARLINK-33831","OBJECT_ID":"2025-076AC","EPOCH":"2026-03-09T23:08:41.908416","MEAN_MOTION":15.27600016,"ECCENTRICITY":5.98e-5,"INCLINATION":42.9982,"RA_OF_ASC_NODE":319.9752,"ARG_OF_PERICENTER":298.4586,"MEAN_ANOMALY":61.6205,"EPHEMERIS_TYPE":0,"CLASSIFICATION_TYPE":"U","NORAD_CAT_ID":63595,"ELEMENT_SET_NO":999,"REV_AT_EPOCH":5187,"BSTAR":0.00087469583,"MEAN_MOTION_DOT":0.000239,"MEAN_MOTION_DDOT":0}]
